{"type": "FeatureCollection", "features": [{"type": "Feature", "geometry": {"type": "LineString", "coordinates": [[-79.3848206, 43.6545585], [-79.3847344, 43.6545775], [-79.3842967, 43.6546744], [-79.3842028, 43.6546952]]}, "properties": {"id": 6299077, "tags": {"highway": "residential", "lanes": "2", "name": "Foster Place", "sidewalk:left": "yes", "sidewalk:right": "separate", "surface": "asphalt"}}}, {"type": "Feature", "geometry": {"type": "LineString", "coordinates": [[-79.3823566, 43.6522794], [-79.382379, 43.6520742], [-79.3823601, 43.6520061], [-79.3823497, 43.6519344], [-79.3823592, 43.651891], [-79.3823729, 43.6518593], [-79.3823856, 43.651832], [-79.3824095, 43.6517962], [-79.3824278, 43.6517753], [-79.3824453, 43.6517527], [-79.3824571, 43.6517374]]}, "properties": {"id": 25822678, "tags": {"cycleway:right": "no", "foot": "no", "highway": "secondary_link", "lanes": "1", "lit": "yes", "maxspeed": "40", "maxspeed:type": "sign", "oneway": "yes", "sidewalk": "no", "smoothness": "good", "surface": "asphalt"}}}, {"type": "Feature", "geometry": {"type": "LineString", "coordinates": [[-79.3823566, 43.6522794], [-79.3823305, 43.6522073], [-79.3822964, 43.6521465], [-79.3822505, 43.6520864], [-79.3821919, 43.6520404], [-79.3821181, 43.6520101], [-79.3820345, 43.6519861], [-79.381876, 43.6519409], [-79.3817614, 43.6518993], [-79.3817339, 43.6518893]]}, "properties": {"id": 233396010, "tags": {"bus_lanes": "7a-7p M-F (buses, taxis, bikes)", "cycleway": "share_busway", "highway": "secondary", "lanes": "4", "lit": "yes", "maxspeed": "40", "name": "Bay Street", "sidewalk:both": "separate", "smoothness": "good", "surface": "asphalt"}}}, {"type": "Feature", "geometry": {"type": "LineString", "coordinates": [[-79.3829438, 43.653779], [-79.3828311, 43.653471]]}, "properties": {"id": 233396011, "tags": {"bus_lanes": "7a-7p M-F (buses, taxis, bikes)", "cycleway": "share_busway", "highway": "secondary", "lanes": "5", "lanes:backward": "3", "lanes:forward": "2", "lit": "yes", "maxspeed": "40", "name": "Bay Street", "sidewalk:left": "separate", "sidewalk:right": "no", "smoothness": "good", "surface": "asphalt", "turn:lanes:backward": "left|none|none"}}}, {"type": "Feature", "geometry": {"type": "LineString", "coordinates": [[-79.3833389, 43.6547651], [-79.3834198, 43.6549718], [-79.3835088, 43.6551823], [-79.383578, 43.6553474]]}, "properties": {"id": 237887998, "tags": {"bus_lanes": "7a-7p M-F (buses, taxis, bikes)", "cycleway": "share_busway", "highway": "secondary", "lanes": "5", "lanes:backward": "3", "lanes:forward": "2", "lit": "yes", "maxspeed": "40", "name": "Bay Street", "sidewalk:both": "separate", "smoothness": "excellent", "surface": "asphalt", "turn:lanes:backward": "left|none|none"}}}, {"type": "Feature", "geometry": {"type": "LineString", "coordinates": [[-79.3831731, 43.6543493], [-79.383133, 43.6542548], [-79.3831259, 43.6542371], [-79.3831205, 43.6542229], [-79.3830445, 43.6540306]]}, "properties": {"id": 237888004, "tags": {"bus_lanes": "7a-7p M-F (buses, taxis, bikes)", "cycleway": "share_busway", "highway": "secondary", "lanes": "4", "lit": "yes", "maxspeed": "40", "name": "Bay Street", "sidewalk:left": "separate", "sidewalk:right": "no", "smoothness": "good", "surface": "asphalt"}}}, {"type": "Feature", "geometry": {"type": "LineString", "coordinates": [[-79.3829438, 43.653779], [-79.3830094, 43.6539428], [-79.3830445, 43.6540306]]}, "properties": {"id": 237888210, "tags": {"bus_lanes": "7a-7p M-F (buses, taxis, bikes)", "cycleway": "share_busway", "highway": "secondary", "lanes": "5", "lanes:backward": "3", "lanes:forward": "2", "lit": "yes", "maxspeed": "40", "name": "Bay Street", "sidewalk:left": "no", "sidewalk:right": "separate", "smoothness": "good", "surface": "asphalt", "turn:lanes:backward": "left|none|none"}}}, {"type": "Feature", "geometry": {"type": "LineString", "coordinates": [[-79.3828311, 43.653471], [-79.3826584, 43.6530373], [-79.382636, 43.652981], [-79.3826095, 43.6529146], [-79.3824182, 43.652434], [-79.3823566, 43.6522794]]}, "properties": {"id": 237888211, "tags": {"bus_lanes": "7a-7p M-F (buses, taxis, bikes)", "cycleway": "share_busway", "highway": "secondary", "lanes": "4", "lit": "yes", "maxspeed": "40", "name": "Bay Street", "oneway": "no", "sidewalk:left": "separate", "sidewalk:right": "no", "smoothness": "good", "surface": "asphalt"}}}, {"type": "Feature", "geometry": {"type": "LineString", "coordinates": [[-79.3833389, 43.6547651], [-79.3832295, 43.654487], [-79.3831731, 43.6543493]]}, "properties": {"id": 1186126655, "tags": {"bus_lanes": "7a-7p M-F (buses, taxis, bikes)", "cycleway": "share_busway", "highway": "secondary", "lanes": "4", "lit": "yes", "maxspeed": "40", "name": "Bay Street", "sidewalk:both": "separate", "surface": "asphalt"}}}]}